NORAD_CAT_ID,OBJECT_NAME,OBJECT_TYPE,EPOCH,MEAN_MOTION,ECCENTRICITY,INCLINATION,RA_OF_ASC_NODE,ARG_OF_PERICENTER,MEAN_ANOMALY,BSTAR,MEAN_MOTION_DOT,MEAN_MOTION_DDOT,TLE_LINE0,TLE_LINE1,TLE_LINE2,SEMIMAJOR_AXIS,PERIOD,APOGEE,PERIGEE,DECAYED
51746.0,STARLINK-3502,PAYLOAD,2023-04-22 02:17:41,15.08611003,0.0001295,53.2181,354.4061,86.6703,273.4437,0.003435,0.00054459,0.0,0 STARLINK-3502,1 51746U 22016AJ  23112.09562325  .00054459  00000-0  34350-2 0  9999,2 51746  53.2181 354.4061 0001295  86.6703 273.4437 15.08611003 65911,6918.58,95.452,541.341,539.549,0.0
51746.0,STARLINK-3502,PAYLOAD,2023-04-22 15:00:46,15.08785345,0.0001186,53.216,352.0279,55.4693,304.6411,0.0016615,0.00026214,0.0,0 STARLINK-3502,1 51746U 22016AJ  23112.62554221  .00026214  00000-0  16615-2 0  9996,2 51746  53.2160 352.0279 0001186  55.4693 304.6411 15.08785345 65992,6918.047,95.441,540.733,539.092,0.0
51746.0,STARLINK-3502,PAYLOAD,2023-04-22 22:57:39,15.0885088,0.0001678,53.2166,350.5416,97.2559,262.8624,0.00024863,3.672e-05,0.0,0 STARLINK-3502,1 51746U 22016AJ  23112.95670271  .00003672  00000-0  24863-3 0  9994,2 51746  53.2166 350.5416 0001678  97.2559 262.8624 15.08850880 66040,6917.847,95.437,540.873,538.551,0.0
51746.0,STARLINK-3502,PAYLOAD,2023-04-23 00:33:02,15.08850922,0.000106,53.2169,350.2448,89.3736,270.7377,0.00026674,3.961e-05,0.0,0 STARLINK-3502,1 51746U 22016AJ  23113.02294253  .00003961  00000-0  26674-3 0  9998,2 51746  53.2169 350.2448 0001060  89.3736 270.7377 15.08850922 64935,6917.847,95.437,540.445,538.979,0.0
51746.0,STARLINK-3502,PAYLOAD,2023-04-23 18:02:17,15.08836323,9.46e-05,53.2168,346.9735,79.365,280.7448,0.00014122,1.96e-05,0.0,0 STARLINK-3502,1 51746U 22016AJ  23113.75159235  .00001960  00000-0  14122-3 0  9990,2 51746  53.2168 346.9735 0000946  79.3650 280.7448 15.08836323 65043,6917.892,95.438,540.411,539.102,0.0
51746.0,STARLINK-3502,PAYLOAD,2023-04-24 01:59:12,15.08845333,0.0001437,53.2175,345.4876,76.2624,283.8528,0.00011193,1.494e-05,0.0,0 STARLINK-3502,1 51746U 22016AJ  23114.08278800  .00001494  00000-0  11193-3 0  9994,2 51746  53.2175 345.4876 0001437  76.2624 283.8528 15.08845333 65093,6917.864,95.437,540.723,538.735,0.0
51746.0,STARLINK-3502,PAYLOAD,2023-04-24 17:53:02,15.0888017,0.000108,53.2173,342.5124,95.5624,264.5491,0.00069634,0.00010824,0.0,0 STARLINK-3502,1 51746U 22016AJ  23114.74516903  .00010824  00000-0  69634-3 0  9996,2 51746  53.2173 342.5124 0001080  95.5624 264.5491 15.08880170 66312,6917.758,95.435,540.37,538.875,0.0
51746.0,STARLINK-3502,PAYLOAD,2023-04-25 14:33:04,15.08793068,0.0001308,53.2162,338.6449,134.3106,225.7993,-0.0017583,-0.00028126,0.0,0 STARLINK-3502,1 51746U 22016AJ  23115.60630502 -.00028126  00000-0 -17583-2 0  9995,2 51746  53.2162 338.6449 0001308 134.3106 225.7993 15.08793068 65321,6918.024,95.441,540.794,538.984,0.0
51746.0,STARLINK-3502,PAYLOAD,2023-04-26 14:23:54,15.08806671,7.09e-05,53.2157,334.1887,73.5032,286.6038,0.0016913,0.00026707,0.0,0 STARLINK-3502,1 51746U 22016AJ  23116.59993814  .00026707  00000-0  16913-2 0  9999,2 51746  53.2157 334.1887 0000709  73.5032 286.6038 15.08806671 65475,6917.982,95.44,540.338,539.357,0.0
51746.0,STARLINK-3502,PAYLOAD,2023-04-26 20:45:27,15.08841783,0.0001157,53.2166,332.9988,112.459,247.6525,0.0022086,0.00035039,0.0,0 STARLINK-3502,1 51746U 22016AJ  23116.86489663  .00035039  00000-0  22086-2 0  9997,2 51746  53.2166 332.9988 0001157 112.4590 247.6525 15.08841783 65519,6917.875,95.437,540.54,538.94,0.0
51746.0,STARLINK-3502,PAYLOAD,2023-04-26 22:20:49,15.08840317,0.0001007,53.2166,332.701,115.8072,244.3024,0.0016419,0.0002594,0.0,0 STARLINK-3502,1 51746U 22016AJ  23116.93113287  .00025940  00000-0  16419-2 0  9994,2 51746  53.2166 332.7010 0001007 115.8072 244.3024 15.08840317 66644,6917.879,95.438,540.441,539.048,0.0
51746.0,STARLINK-3502,PAYLOAD,2023-04-27 14:14:40,15.08859892,0.0001062,53.2165,329.7287,116.7243,243.3858,0.00071958,0.00011189,0.0,0 STARLINK-3502,1 51746U 22016AJ  23117.59352456  .00011189  00000-0  71958-3 0  9990,2 51746  53.2165 329.7287 0001062 116.7243 243.3858 15.08859892 65625,6917.82,95.436,540.419,538.95,0.0
51746.0,STARLINK-3502,PAYLOAD,2023-04-27 20:36:12,15.08862038,8.46e-05,53.2164,328.5391,121.4258,238.6816,0.00072647,0.000113,0.0,0 STARLINK-3502,1 51746U 22016AJ  23117.85848098  .00011300  00000-0  72647-3 0  9992,2 51746  53.2164 328.5391 0000846 121.4258 238.6816 15.08862038 66780,6917.813,95.436,540.263,539.093,0.0
51746.0,STARLINK-3502,PAYLOAD,2023-04-27 23:46:58,15.08868028,9.23e-05,53.2161,327.9433,125.2537,234.8542,0.00068474,0.00010635,0.0,0 STARLINK-3502,1 51746U 22016AJ  23117.99095647  .00010635  00000-0  68474-3 0  9994,2 51746  53.2161 327.9433 0000923 125.2537 234.8542 15.08868028 65682,6917.795,95.436,540.298,539.021,0.0
51746.0,STARLINK-3502,PAYLOAD,2023-04-28 20:26:59,15.08850009,0.0001079,53.216,324.0793,108.1354,251.9756,3.0173e-05,1.93e-06,0.0,0 STARLINK-3502,1 51746U 22016AJ  23118.85207663  .00000193  00000-0  30173-4 0  9997,2 51746  53.2160 324.0793 0001079 108.1354 251.9756 15.08850009 66934,6917.85,95.437,540.461,538.968,0.0
51746.0,STARLINK-3502,PAYLOAD,2023-04-29 13:56:13,15.08847382,8.29e-05,53.2179,320.8078,107.2523,252.856,0.00012483,1.7e-05,0.0,0 STARLINK-3502,1 51746U 22016AJ  23119.58071574  .00001700  00000-0  12483-3 0  9996,2 51746  53.2179 320.8078 0000829 107.2523 252.8560 15.08847382 65925,6917.858,95.437,540.296,539.149,0.0
51746.0,STARLINK-3502,PAYLOAD,2023-04-29 23:28:32,15.08855681,7.1e-05,53.2165,319.0218,103.9241,256.183,0.00038238,5.806e-05,0.0,0 STARLINK-3502,1 51746U 22016AJ  23119.97815173  .00005806  00000-0  38238-3 0  9997,2 51746  53.2165 319.0218 0000710 103.9241 256.1830 15.08855681 67105,6917.832,95.437,540.189,539.206,0.0
51746.0,STARLINK-3502,PAYLOAD,2023-04-30 13:47:01,15.08833746,0.0001649,53.2169,316.3473,101.6391,258.4786,0.00025226,3.728e-05,0.0,0 STARLINK-3502,1 51746U 22016AJ  23120.57432074  .00003728  00000-0  25226-3 0  9994,2 51746  53.2169 316.3473 0001649 101.6391 258.4786 15.08833746 67197,6917.9,95.438,540.905,538.624,0.0
51746.0,STARLINK-3502,PAYLOAD,2023-05-01 00:54:42,15.08847852,6.72e-05,53.2158,314.2627,112.2261,247.8802,0.00026711,3.967e-05,0.0,0 STARLINK-3502,1 51746U 22016AJ  23121.03799377  .00003967  00000-0  26711-3 0  9993,2 51746  53.2158 314.2627 0000672 112.2261 247.8802 15.08847852 67264,6917.856,95.437,540.186,539.257,0.0
51746.0,STARLINK-3502,PAYLOAD,2023-05-01 15:13:11,15.08838492,8.02e-05,53.2159,311.5857,134.3019,225.8039,0.00013182,1.811e-05,0.0,0 STARLINK-3502,1 51746U 22016AJ  23121.63415722  .00001811  00000-0  13182-3 0  9992,2 51746  53.2159 311.5857 0000802 134.3019 225.8039 15.08838492 67359,6917.885,95.438,540.305,539.195,0.0
51746.0,STARLINK-3502,PAYLOAD,2023-05-01 19:59:20,15.08842744,7.11e-05,53.2159,310.6948,108.2863,251.8206,0.00019072,2.749e-05,0.0,0 STARLINK-3502,1 51746U 22016AJ  23121.83287717  .00002749  00000-0  19072-3 0  9990,2 51746  53.2159 310.6948 0000711 108.2863 251.8206 15.08842744 66265,6917.872,95.437,540.229,539.245,0.0
51746.0,STARLINK-3502,PAYLOAD,2023-05-02 11:53:11,15.08844251,7.73e-05,53.2161,307.7219,100.367,259.7409,0.00024865,3.672e-05,0.0,0 STARLINK-3502,1 51746U 22016AJ  23122.49527767  .00003672  00000-0  24865-3 0  9997,2 51746  53.2161 307.7219 0000773 100.3670 259.7409 15.08844251 66361,6917.867,95.437,540.267,539.198,0.0
51746.0,STARLINK-3502,PAYLOAD,2023-05-02 19:50:07,15.08848887,7.83e-05,53.2167,306.2358,98.5438,261.5643,0.00027982,4.169e-05,0.0,0 STARLINK-3502,1 51746U 22016AJ  23122.82647523  .00004169  00000-0  27982-3 0  9992,2 51746  53.2167 306.2358 0000783  98.5438 261.5643 15.08848887 67536,6917.853,95.437,540.26,539.177,0.0
51746.0,STARLINK-3502,PAYLOAD,2023-05-03 11:43:59,15.0883463,5.66e-05,53.2162,303.2589,131.3167,228.7874,3.0655e-05,2e-06,0.0,0 STARLINK-3502,1 51746U 22016AJ  23123.48888096  .00000200  00000-0  30655-4 0  9991,2 51746  53.2162 303.2589 0000566 131.3167 228.7874 15.08834630 67631,6917.897,95.438,540.153,539.37,0.0
51746.0,STARLINK-3502,PAYLOAD,2023-05-03 21:16:18,15.08838537,7.54e-05,53.2162,301.4777,84.3566,275.7512,7.7207e-05,9.41e-06,0.0,0 STARLINK-3502,1 51746U 22016AJ  23123.88632139  .00000941  00000-0  77207-4 0  9996,2 51746  53.2162 301.4777 0000754  84.3566 275.7512 15.08838537 66572,6917.885,95.438,540.271,539.228,0.0
51746.0,STARLINK-3502,PAYLOAD,2023-05-04 05:13:13,15.08839427,8.25e-05,53.2161,299.9909,73.3985,286.7098,0.00010625,1.404e-05,0.0,0 STARLINK-3502,1 51746U 22016AJ  23124.21752251  .00001404  00000-0  10625-3 0  9997,2 51746  53.2161 299.9909 0000825  73.3985 286.7098 15.08839427 66627,6917.882,95.438,540.318,539.176,0.0
51746.0,STARLINK-3502,PAYLOAD,2023-05-04 17:56:18,15.08848343,7.31e-05,53.2163,297.6115,73.0253,287.082,0.00025509,3.775e-05,0.0,0 STARLINK-3502,1 51746U 22016AJ  23124.74743884  .00003775  00000-0  25509-3 0  9997,2 51746  53.2163 297.6115 0000731  73.0253 287.0820 15.08848343 66707,6917.855,95.437,540.226,539.214,0.0
51746.0,STARLINK-3502,PAYLOAD,2023-05-04 21:07:04,15.0885343,7.56e-05,53.2164,297.0165,80.3379,279.7699,0.00036519,5.531e-05,0.0,0 STARLINK-3502,1 51746U 22016AJ  23124.87991680  .00005531  00000-0  36519-3 0  9995,2 51746  53.2164 297.0165 0000756  80.3379 279.7699 15.08853430 67845,6917.839,95.437,540.227,539.181,0.0
51746.0,STARLINK-3502,PAYLOAD,2023-05-05 05:04:00,15.08849687,0.0001224,53.2162,295.5333,39.9922,320.116,0.0003187,4.789e-05,0.0,0 STARLINK-3502,1 51746U 22016AJ  23125.21111789  .00004789  00000-0  31870-3 0  9997,2 51746  53.2162 295.5333 0001224  39.9922 320.1160 15.08849687 67896,6917.851,95.437,540.563,538.869,0.0
51746.0,STARLINK-3502,PAYLOAD,2023-05-05 16:11:42,15.08842331,8.98e-05,53.2168,293.4482,78.6635,281.4458,0.00016185,2.289e-05,0.0,0 STARLINK-3502,1 51746U 22016AJ  23125.67480214  .00002289  00000-0  16185-3 0  9994,2 51746  53.2168 293.4482 0000898  78.6635 281.4458 15.08842331 67967,6917.873,95.437,540.359,539.117,0.0
